[{"OBJECT_NAME":"IRIDIUM 149","OBJECT_ID":"2018-030B","EPOCH":"2026-03-09T19:36:11.240064","MEAN_MOTION":14.34219768,"ECCENTRICITY":0.00021302,"INCLINATION":86.4008,"RA_OF_ASC_NODE":331.9304,"ARG_OF_PERICENTER":82.8556,"MEAN_ANOMALY":277.2882,"EPHEMERIS_TYPE":0,"CLASSIFICATION_TYPE":"U","NORAD_CAT_ID":43250,"ELEMENT_SET_NO":999,"REV_AT_EPOCH":41591,"BSTAR":0.00012927416,"MEAN_MOTION_DOT":3.82e-6,"MEAN_MOTION_DDOT":0},{"OBJECT_NAME":"COSMOS 1937","OBJECT_ID":"1988-029A","EPOCH":"2026-03-09T21:48:41.896800","MEAN_MOTION":14.36122746,"ECCENTRICITY":0.00231923,"INCLINATION":74.0444,"RA_OF_ASC_NODE":286.8147,"ARG_OF_PERICENTER":35.2091,"MEAN_ANOMALY":70.0638,"EPHEMERIS_TYPE":0,"CLASSIFICATION_TYPE":"U","NORAD_CAT_ID":19038,"ELEMENT_SET_NO":999,"REV_AT_EPOCH":98549,"BSTAR":5.5374425e-5,"MEAN_MOTION_DOT":1.36e-6,"MEAN_MOTION_DDOT":0}]
